     2              NAVIGATION DATA                         RINEX VERSION / TYPE
CCRINEXN V1.6.0 UX  CDDIS               26-JUL-16 15:33     PGM / RUN BY / DATE 
IGS BROADCAST EPHEMERIS FILE                                COMMENT             
    0.4657D-08  0.1490D-07 -0.5960D-07 -0.5960D-07          ION ALPHA           
    0.7987D+05  0.6554D+05 -0.6554D+05 -0.3932D+06          ION BETA            
   -0.931322574615D-09-0.266453525910D-14   233472     1907 DELTA-UTC: A0,A1,T,W
    17                                                      LEAP SECONDS        
                                                            END OF HEADER       
 6 16  7 25  4  0  0.0 0.223285984248D-03 0.522959453519D-11 0.000000000000D+00
    0.360000000000D+02-0.683125000000D+02 0.469662420468D-08 0.163183493933D+00
   -0.375136733055D-05 0.314519857056D-03 0.555068254471D-05 0.515373136139D+04
    0.100800000000D+06-0.223517417908D-07 0.298940961019D+01 0.223517417908D-07
    0.965028783014D+00 0.269562500000D+03-0.133973854834D+01-0.830963184381D-08
   -0.992898501065D-10 0.000000000000D+00 0.190700000000D+04 0.000000000000D+00
    0.200000000000D+01 0.000000000000D+00 0.419095158577D-08 0.360000000000D+02
    0.936000000000D+05 0.400000000000D+01 0.000000000000D+00 0.000000000000D+00
 7 16  7 25  4  0  0.0 0.439660623670D-03-0.261479726760D-11 0.000000000000D+00
    0.620000000000D+02-0.242500000000D+02 0.468269505304D-08-0.792365632592D+00
   -0.141002237797D-05 0.981381721795D-02 0.596791505814D-05 0.515363157654D+04
    0.100800000000D+06 0.178813934326D-06-0.126725711640D+00 0.707805156708D-07
    0.965982465161D+00 0.266718750000D+03-0.265667111670D+01-0.829284543030D-08
   -0.505378193887D-09 0.000000000000D+00 0.190700000000D+04 0.000000000000D+00
    0.200000000000D+01 0.000000000000D+00-0.111758708954D-07 0.620000000000D+02
    0.936000000000D+05 0.400000000000D+01 0.000000000000D+00 0.000000000000D+00
 8 16  7 25  4  0  0.0-0.440403819084D-04-0.147792889038D-11 0.000000000000D+00
    0.400000000000D+02 0.456562500000D+02 0.446911472800D-08 0.284570249909D+01
    0.236555933952D-05 0.167348678224D-02 0.600516796112D-05 0.515372374535D+04
    0.100800000000D+06-0.279396772385D-07 0.193686461894D+01-0.558793544769D-08
    0.963679933046D+00 0.265250000000D+03-0.102950548857D+01-0.817962642856D-08
    0.351086052715D-09 0.100000000000D+01 0.190700000000D+04 0.000000000000D+00
    0.200000000000D+01 0.000000000000D+00 0.512227416039D-08 0.400000000000D+02
    0.936000000000D+05 0.400000000000D+01 0.000000000000D+00 0.000000000000D+00
 9 16  7 25  4  0  0.0 0.173907261342D-03 0.716227077646D-11 0.000000000000D+00
    0.290000000000D+02 0.708125000000D+02 0.497770734149D-08 0.161669229185D+01
    0.364892184734D-05 0.503514893353D-03 0.690668821335D-05 0.515353527641D+04
    0.100800000000D+06 0.130385160446D-07-0.120494694425D+01-0.111758708954D-07
    0.954417380915D+00 0.239656250000D+03 0.242138387384D+01-0.833999025121D-08
    0.219652006531D-09 0.000000000000D+00 0.190700000000D+04 0.000000000000D+00
    0.200000000000D+01 0.000000000000D+00 0.139698386192D-08 0.290000000000D+02
    0.936000000000D+05 0.400000000000D+01 0.000000000000D+00 0.000000000000D+00
10 16  7 25  4  0  0.0-0.717099756002D-04-0.682121026330D-11 0.000000000000D+00
    0.910000000000D+02-0.297187500000D+02 0.454554648311D-08-0.237308788781D+01
   -0.161118805408D-05 0.164066266734D-02 0.114347785711D-04 0.515368372536D+04
    0.100800000000D+06-0.111758708954D-07-0.224809007407D+01-0.428408384323D-07
    0.959555055582D+00 0.161218750000D+03-0.275152475733D+01-0.794390232399D-08
    0.503592405216D-10 0.100000000000D+01 0.190700000000D+04 0.000000000000D+00
    0.200000000000D+01 0.000000000000D+00 0.232830643654D-08 0.910000000000D+02
    0.936000000000D+05 0.400000000000D+01 0.000000000000D+00 0.000000000000D+00
11 16  7 25  4  0  0.0-0.657021999359D-03-0.125055521494D-11 0.000000000000D+00
    0.650000000000D+02-0.265625000000D+02 0.642098174538D-08-0.678406322803D+00
   -0.126473605633D-05 0.166491684504D-01 0.375322997570D-05 0.515366571236D+04
    0.100800000000D+06-0.165775418282D-06 0.261681223859D+01 0.113621354103D-06
    0.897516055775D+00 0.279062500000D+03 0.154708985635D+01-0.946075122112D-08
    0.192865176466D-09 0.000000000000D+00 0.190700000000D+04 0.000000000000D+00
    0.280000000000D+01 0.000000000000D+00-0.121071934700D-07 0.650000000000D+02
    0.936000000000D+05 0.400000000000D+01 0.000000000000D+00 0.000000000000D+00
12 16  7 25  4  0  0.0 0.386070460081D-03 0.909494701773D-12 0.000000000000D+00
    0.940000000000D+02-0.415625000000D+01 0.354014746135D-08-0.138993912790D+01
   -0.223517417908D-06 0.609373115003D-02 0.112038105726D-04 0.515369788170D+04
    0.100800000000D+06 0.197440385819D-06 0.950289637595D+00-0.651925802231D-07
    0.990254305164D+00 0.180187500000D+03 0.781679182796D+00-0.760888836931D-08
   -0.177150236161D-09 0.100000000000D+01 0.190700000000D+04 0.000000000000D+00
    0.280000000000D+01 0.000000000000D+00-0.125728547573D-07 0.940000000000D+02
    0.936180000000D+05 0.400000000000D+01 0.000000000000D+00 0.000000000000D+00
13 16  7 25  4  0  0.0-0.333278439939D-04-0.238742359215D-11 0.000000000000D+00
    0.290000000000D+02 0.615312500000D+02 0.476091259683D-08 0.142141437653D+00
    0.326894223690D-05 0.413028930780D-02 0.681355595589D-05 0.515368015862D+04
    0.100800000000D+06 0.745058059692D-08-0.108330441943D+01 0.149011611938D-07
    0.970804325074D+00 0.253218750000D+03 0.199764739490D+01-0.831034615927D-08
    0.275368613065D-09 0.100000000000D+01 0.190700000000D+04 0.000000000000D+00
    0.200000000000D+01 0.000000000000D+00-0.111758708954D-07 0.290000000000D+02
    0.955500000000D+05 0.400000000000D+01 0.000000000000D+00 0.000000000000D+00
14 16  7 25  4  0  0.0-0.263536348939D-04-0.204636307899D-11 0.000000000000D+00
    0.450000000000D+02 0.572187500000D+02 0.474912639161D-08 0.168848781417D+01
    0.283308327198D-05 0.890111830086D-02 0.710971653462D-05 0.515403969955D+04
    0.100800000000D+06-0.216066837311D-06-0.112073151369D+01-0.189989805222D-06
    0.963281175225D+00 0.245843750000D+03-0.196002031243D+01-0.820248452355D-08
    0.190722230061D-09 0.100000000000D+01 0.190700000000D+04 0.000000000000D+00
    0.200000000000D+01 0.000000000000D+00-0.931322574616D-08 0.450000000000D+02
    0.997800000000D+05 0.400000000000D+01 0.000000000000D+00 0.000000000000D+00
15 16  7 25  4  0  0.0-0.320739112794D-03-0.147792889038D-11 0.000000000000D+00
    0.590000000000D+02 0.667187500000D+02 0.560951937328D-08 0.125324351545D+01
    0.377185642719D-05 0.822737952694D-02 0.810250639916D-05 0.515363504219D+04
    0.100800000000D+06 0.726431608200D-07-0.125896634272D+01 0.134110450745D-06
    0.930109899839D+00 0.205875000000D+03 0.487289733550D+00-0.875250743421D-08
    0.194650965137D-09 0.100000000000D+01 0.190700000000D+04 0.000000000000D+00
    0.200000000000D+01 0.000000000000D+00-0.107102096081D-07 0.590000000000D+02
    0.100230000000D+06 0.400000000000D+01 0.000000000000D+00 0.000000000000D+00
16 16  7 25  4  0  0.0-0.276602804661D-05 0.216004991671D-11 0.000000000000D+00
    0.220000000000D+02 0.965625000000D+01 0.349764569098D-08 0.286661955780D+01
    0.376254320145D-06 0.869295606390D-02 0.103060156107D-04 0.515354243278D+04
    0.100800000000D+06-0.558793544769D-07 0.969086353079D+00-0.465661287308D-07
    0.990746780443D+00 0.198156250000D+03 0.387901541336D+00-0.754674292356D-08
   -0.875036448780D-10 0.100000000000D+01 0.190700000000D+04 0.000000000000D+00
    0.200000000000D+01 0.000000000000D+00-0.107102096081D-07 0.220000000000D+02
    0.936000000000D+05 0.400000000000D+01 0.000000000000D+00 0.000000000000D+00
17 16  7 25  4  0  0.0-0.203787349164D-03 0.227373675443D-12 0.000000000000D+00
    0.710000000000D+02 0.428437500000D+02 0.418017412103D-08 0.201742396560D+01
    0.219047069550D-05 0.110172870336D-01 0.606849789619D-05 0.515372088623D+04
    0.100800000000D+06 0.558793544769D-07 0.199027632270D+01-0.268220901489D-06
    0.976844722601D+00 0.268406250000D+03-0.192594552128D+01-0.803604901941D-08
    0.491806199988D-09 0.000000000000D+00 0.190700000000D+04 0.000000000000D+00
    0.200000000000D+01 0.000000000000D+00-0.107102096081D-07 0.710000000000D+02
    0.936000000000D+05 0.400000000000D+01 0.000000000000D+00 0.000000000000D+00
18 16  7 25  4  0  0.0 0.540094915777D-03 0.409272615798D-11 0.000000000000D+00
    0.101000000000D+03-0.359375000000D+02 0.519843082122D-08-0.270632814319D+01
   -0.192783772945D-05 0.172646394931D-01 0.112392008305D-04 0.515370844078D+04
    0.100800000000D+06 0.283122062683D-06-0.227920689021D+01-0.391155481338D-07
    0.925069547260D+00 0.137656250000D+03-0.186925814791D+01-0.808212236712D-08
    0.106790162525D-09 0.100000000000D+01 0.190700000000D+04 0.000000000000D+00
    0.280000000000D+01 0.000000000000D+00-0.111758708954D-07 0.101000000000D+03
    0.936000000000D+05 0.400000000000D+01 0.000000000000D+00 0.000000000000D+00
19 16  7 25  4  0  0.0-0.524725764990D-03 0.227373675443D-12 0.000000000000D+00
    0.820000000000D+02 0.428125000000D+02 0.435196699118D-08-0.115139496127D+01
    0.252947211266D-05 0.107277241768D-01 0.533647835255D-05 0.515362275124D+04
    0.100800000000D+06 0.260770320892D-06 0.203892377480D+01 0.968575477600D-07
    0.973993224624D+00 0.277687500000D+03 0.826600936573D+00-0.821284209784D-08
    0.474305471012D-09 0.000000000000D+00 0.190700000000D+04 0.000000000000D+00
    0.200000000000D+01 0.000000000000D+00-0.149011611938D-07 0.820000000000D+02
    0.936000000000D+05 0.400000000000D+01 0.000000000000D+00 0.000000000000D+00
